OBJECT_NAME,OBJECT_ID,EPOCH,MEAN_MOTION,ECCENTRICITY,INCLINATION,RA_OF_ASC_NODE,ARG_OF_PERICENTER,MEAN_ANOMALY,EPHEMERIS_TYPE,CLASSIFICATION_TYPE,NORAD_CAT_ID,ELEMENT_SET_NO,REV_AT_EPOCH,BSTAR,MEAN_MOTION_DOT,MEAN_MOTION_DDOT
STARLINK-37963,2026-147F,2026-07-16T01:14:19.459104,15.81118228,.00009259,97.2820,233.4970,159.0836,201.0470,0,U,69709,999,399,.16609431E-2,.335137E-2,0
STARLINK-37969,2026-147G,2026-07-16T01:13:14.449152,15.80942038,.00015574,97.2823,233.4991,129.2781,230.8626,0,U,69710,999,399,.12628123E-2,.25025E-2,0
STARLINK-37956,2026-147H,2026-07-16T01:12:09.312192,15.80930616,.0002672,97.2825,233.5003,127.4074,232.7438,0,U,69711,999,399,.97095828E-3,.190985E-2,0
STARLINK-38043,2026-147J,2026-07-16T01:11:04.390368,15.80887655,.0001668,97.2811,233.4992,127.6390,232.5030,0,U,69712,999,399,.10993854E-2,.216458E-2,0
STARLINK-38020,2026-147K,2026-07-16T01:09:59.603328,15.80913022,.00019704,97.2825,233.5016,127.4196,232.7252,0,U,69713,999,399,.91956301E-3,.180492E-2,0
STARLINK-38059,2026-147L,2026-07-16T01:08:54.466368,15.80931126,.00032421,97.2826,233.5034,137.1623,222.9898,0,U,69714,999,399,.96490992E-3,.189788E-2,0
STARLINK-38061,2026-147M,2026-07-16T01:07:49.713024,15.80917545,.00015675,97.2830,233.5047,122.9852,237.1567,0,U,69715,999,399,.94036432E-3,.184702E-2,0
STARLINK-38060,2026-147N,2026-07-16T01:06:44.840448,15.80911040,.00012193,97.2827,233.5055,115.3015,244.8380,0,U,69716,999,399,.90668737E-3,.177887E-2,0
STARLINK-38040,2026-147P,2026-07-16T01:05:39.939360,15.81099813,.00010314,97.2816,233.5052,154.1217,206.0103,0,U,69717,999,399,.15354439E-2,.308589E-2,0
STARLINK-37989,2026-147Q,2026-07-16T06:00:02.000160,15.80840095,.00012496,97.2825,233.7242,83.8842,3.0705,0,U,69718,999,400,-.28409508E-3,-.54282E-3,0
STARLINK-38039,2026-147R,2026-07-16T01:03:30.018816,15.80958408,.00010664,97.2826,233.5075,135.8086,224.3268,0,U,69719,999,399,.1456474E-2,.290206E-2,0
STARLINK-38003,2026-147S,2026-07-16T01:02:25.063296,15.80933235,.00037044,97.2826,233.5082,121.1060,239.0573,0,U,69720,999,399,.92936024E-3,.182675E-2,0
STARLINK-38014,2026-147T,2026-07-16T01:01:20.166528,15.80913089,.00018829,97.2825,233.5090,114.6406,245.5059,0,U,69721,999,399,.86794309E-3,.170149E-2,0
STARLINK-37915,2026-147U,2026-07-16T02:31:24.589344,15.80802381,.00010633,97.2820,233.5758,97.0444,263.0945,0,U,69722,999,400,.12748244E-2,.251051E-2,0
STARLINK-38007,2026-147V,2026-07-16T06:00:02.000160,15.80849113,.00012129,97.2824,233.7248,88.9597,1.4837,0,U,69723,999,400,-.34243198E-3,-.65343E-3,0
STARLINK-38008,2026-147W,2026-07-16T00:58:05.328480,15.81125730,.00019446,97.2829,233.5128,132.5495,227.5938,0,U,69724,999,399,.16440403E-2,.331699E-2,0
STARLINK-38021,2026-147X,2026-07-16T02:28:09.665760,15.80792703,.00020312,97.2829,233.5807,109.1478,251.0011,0,U,69725,999,400,.11263838E-2,.220938E-2,0
STARLINK-38015,2026-147Y,2026-07-16T02:27:04.826880,15.80800028,.00012687,97.2826,233.5818,100.8246,259.3165,0,U,69726,999,400,.12558969E-2,.247183E-2,0
STARLINK-38010,2026-147Z,2026-07-16T01:33:06.166080,15.75223200,.00014405,97.2829,233.4791,44.0461,316.0919,0,U,69727,999,399,.74793301E-3,.11308E-2,0
SXM-11,2026-148A,2026-07-16T03:23:14.857152,1.00269654,.00019354,0.1094,265.2326,179.0008,140.0475,0,U,69728,999,33,0,0,0
HAIYANG-2E,2026-149A,2026-07-13T15:15:28.816416,13.79314717,.0001579,99.3454,201.5813,93.5996,266.5337,0,U,69737,999,161,-.45287E-4,-.91E-6,0
CZ-4B R/B,2026-149B,2026-07-13T15:39:16.104672,14.30067210,.01981969,99.3217,202.5607,334.5310,24.6204,0,U,69738,999,191,.33596551E-4,.49E-6,0
STARLINK-38033,2026-150A,2026-07-16T06:53:41.717760,15.80865267,.00011854,97.2843,35.7115,69.3178,290.8217,0,U,69739,999,349,.8114956E-3,.158509E-2,0
STARLINK-38076,2026-150B,2026-07-16T02:51:46.888416,15.75190961,.0002855,97.2832,35.4801,43.7898,316.3593,0,U,69740,999,346,.80617342E-3,.121868E-2,0
STARLINK-38074,2026-150C,2026-07-16T06:49:58.928448,15.80860580,.00015508,97.2836,35.7146,75.1213,285.0227,0,U,69741,999,349,.98454452E-3,.19307E-2,0
STARLINK-38041,2026-150D,2026-07-14T12:16:40.240704,15.80925154,.00013947,97.2822,33.8415,105.4157,254.7266,0,U,69742,999,321,.10042928E-2,.19763E-2,0
STARLINK-38087,2026-150E,2026-07-16T06:00:02.000160,15.81210776,.00020044,97.2843,35.6824,85.1966,86.2151,0,U,69743,999,346,-.76777313E-2,-.1317371E-1,0
STARLINK-38078,2026-150F,2026-07-16T02:13:15.398976,15.80806887,.00013121,97.2829,35.5165,115.7902,244.3502,0,U,69744,999,346,.90096135E-3,.175884E-2,0
STARLINK-38047,2026-150G,2026-07-14T12:13:16.222656,15.80859566,.00036662,97.2820,33.8437,125.3440,234.8171,0,U,69745,999,321,.71675095E-3,.139688E-2,0
STARLINK-38046,2026-150H,2026-07-16T02:09:20.524896,15.80805019,.00017889,97.2833,35.5211,81.3402,278.8068,0,U,69746,999,346,.89515475E-3,.174715E-2,0
